KUIPER-00074            
1 64821U 25151F   25286.66667824 -.01157548  00000+0 -11577+0 0  9995
2 64821  51.8925 221.3131 0013218 132.0318 181.9196 14.93833433  5730
KUIPER-00075            
1 64822U 25151G   25286.54174695  .00057103  00000+0  14610-2 0  9999
2 64822  51.8762 216.2424 0006188  96.7358 263.4334 15.38853757 13725
KUIPER-00076            
1 64823U 25151H   25286.66667824  .00038012  00000+0  41845-2 0  9992
2 64823  51.8959 223.3578 0005710 134.0229  28.1211 14.87195073  5764
KUIPER-00077            
1 64824U 25151J   25286.54772986  .00013624  00000+0  18082-2 0  9995
2 64824  51.9015 228.7396 0006222  81.7108 278.4559 14.80023494 13550
KUIPER-00078            
1 64825U 25151K   25286.66667824 -.00036450  00000+0 -46997-2 0  9993
2 64825  51.9402 225.7150 0008501 159.1411 279.3799 14.80595551  5853
KUIPER-00079            
1 64826U 25151L   25286.58344204  .00007962  00000+0  10712-2 0  9999
2 64826  51.8984 230.7773 0012870 111.0276 249.2064 14.79932990 14722
KUIPER-00080            
1 64827U 25151M   25286.10595918  .00004199  00000+0  57913-3 0  9992
2 64827  51.8989 233.1879 0006024 124.1223 236.0312 14.79961183 13458
KUIPER-00082            
1 64828U 25151N   25286.66667824 -.01845316  00000+0 -14021+0 0  9996
2 64828  51.8907 219.6501 0005936 129.0715  53.7552 15.05361910  5522
KUIPER-00083            
1 64829U 25151P   25286.66667824  .00033025  00000+0  43329-2 0  9996
2 64829  51.8995 225.7183 0010953 117.3300 141.7421 14.79963348  3523
KUIPER-00084            
1 64830U 25151Q   25285.59405429  .00008412  00000+0  11471-2 0  9995
2 64830  51.9013 240.4465 0011742  91.3591 268.8717 14.79303591 13308
KUIPER-00085            
1 64831U 25151R   25286.66667824 -.00835494  00000+0 -66184-1 0  9994
2 64831  51.8927 219.8006 0010049 111.4473 252.4730 15.02801017  5730
KUIPER-00086            
1 64832U 25151S   25286.58146122  .00005094  00000+0  69596-3 0  9994
2 64832  51.9011 228.5892 0011889 114.1783 246.0423 14.79954752 13558
KUIPER-00087            
1 64833U 25151T   25286.66667824 -.00555135  00000+0 -23928-1 0  9996
2 64833  51.8801 216.6839 0006151 116.5197  70.9348 15.24167959  5530
KUIPER-00089            
1 64834U 25151U   25286.66667824 -.01853740  00000+0 -11437+0 0  9991
2 64834  51.8890 218.4353 0003477 128.7244 289.0309 15.12935283  4760
KUIPER-00090            
1 64835U 25151V   25286.66667824 -.01291788  00000+0 -49525-1 0  9991
2 64835  51.8794 216.5568 0007912 131.2497  87.8112 15.28886404  4008
KUIPER-00091            
1 64836U 25151W   25286.66667824 -.01708458  00000+0 -92849-1 0  9996
2 64836  51.8797 217.5553 0008382 133.7918 284.0853 15.17607187  3823
KUIPER-00092            
1 64837U 25151X   25286.66667824 -.01015915  00000+0 -97070-1 0  9997
2 64837  51.8914 221.3449 0008463 110.6088 320.4654 14.95765350  1828
KUIPER-00093            
1 64838U 25151Y   25286.66667824  .00002310  00000+0  28090-3 0  9998
2 64838  51.8955 223.4162 0015328 117.7156 221.1676 14.87064348  1484
KUIPER-00094            
1 64839U 25151Z   25286.66667824 -.01084336  00000+0 -68830-1 0  9994
2 64839  51.8843 218.5428 0007919 123.6952 153.3978 15.11212379  4412
KUIPER-00081            
1 65132U 25171A   25286.54723315  .00067796  00000+0  17992-2 0  9990
2 65132  51.8742 100.3584 0004454 352.2141   7.8776 15.37659721 10947
KUIPER-00088            
1 65133U 25171B   25286.66667824 -.01097477  00000+0 -52473-1 0  9990
2 65133  51.8855 100.7869 0006484 338.9538 195.9133 15.21606426  4822
KUIPER-00095            
1 65134U 25171C   25286.57350395  .00027744  00000+0  76166-3 0  9997
2 65134  51.8730 100.5240 0004223  16.7137 343.3988 15.37029887 10945
KUIPER-00096            
1 65135U 25171D   25286.56015978  .00029331  00000+0  79452-3 0  9997
2 65135  51.8742 100.4359 0004909 358.8302   1.2673 15.37413483 10944
KUIPER-00097            
1 65136U 25171E   25286.66667824 -.01342191  00000+0 -47421-1 0  9996
2 65136  51.8768 100.1877 0004887   4.1780  82.4730 15.31654084  4127
KUIPER-00098            
1 65137U 25171F   25286.66667824 -.01318468  00000+0 -52872-1 0  9993
2 65137  51.8784 100.2214 0006706 355.9293  93.1953 15.27503811  4807
KUIPER-00099            
1 65138U 25171G   25286.55099785  .00041634  00000+0  11082-2 0  9991
2 65138  51.8752 100.3872 0005364 349.4471  10.6403 15.37781929 10933
KUIPER-00100            
1 65139U 25171H   25286.55987509  .00060200  00000+0  16060-2 0  9993
2 65139  51.8743 100.4337 0004801 358.9037   1.1938 15.37550371 10932
KUIPER-00102            
1 65140U 25171J   25286.57391955  .00078209  00000+0  21095-2 0  9993
2 65140  51.8727 100.5228 0005148 353.5857   6.5063 15.37088163 10935
KUIPER-00103            
1 65141U 25171K   25286.66667824 -.01272255  00000+0 -87435-1 0  9994
2 65141  51.8899 102.7390 0004973  12.3596 285.8171 15.08366494  5137
KUIPER-00104            
1 65142U 25171L   25286.56350011  .00059382  00000+0  15923-2 0  9996
2 65142  51.8756 100.4708 0003854 358.1359   1.9613 15.37401793 10939
KUIPER-00105            
1 65143U 25171M   25286.66667824 -.01374925  00000+0 -69179-1 0  9998
2 65143  51.8804 100.9197 0008295 335.3221  85.8983 15.20058148  4196
KUIPER-00106            
1 65144U 25171N   25286.66667824 -.00998908  00000+0 -69795-1 0  9995
2 65144  51.9025 102.9344 0007799 329.4932 148.5117 15.07515437  5359
KUIPER-00107            
1 65145U 25171P   25286.55899819  .00050252  00000+0  13502-2 0  9990
2 65145  51.8747 100.4402 0004541   1.7192 358.3810 15.37409663 10946
KUIPER-00108            
1 65146U 25171Q   25286.66667824 -.00039067  00000+0 -11906-2 0  9991
2 65146  51.8769 100.1498 0005046   8.3496 116.6811 15.33293646  5706
KUIPER-00109            
1 65147U 25171R   25286.55008283  .00050297  00000+0  13349-2 0  9997
2 65147  51.8741 100.3746 0005632 342.7822  17.2973 15.37784791 10930
KUIPER-00110            
1 65148U 25171S   25286.66667824 -.00825677  00000+0 -47323-1 0  9994
2 65148  51.8913 101.8427 0008923 335.7400 341.9782 15.14539062  5421
KUIPER-00111            
1 65149U 25171T   25286.66667824 -.00890101  00000+0 -76724-1 0  9996
2 65149  51.8986 104.2232 0007060 356.5297 294.7293 14.99825913  4481
KUIPER-00112            
1 65150U 25171U   25286.66667824  .00014616  00000+0  40554-3 0  9999
2 65150  51.8751 100.1068 0005135  20.0389 124.0336 15.37136969  5888
KUIPER-00114            
1 65151U 25171V   25286.66667824 -.00064015  00000+0 -65194-2 0  9996
2 65151  51.8957 106.1453 0007704 343.2810 305.3897 14.90514052  4396
KUIPER-00115            
1 65152U 25171W   25286.66667824 -.00041425  00000+0 -21679-2 0  9997
2 65152  51.8884 101.6661 0008517   6.9554  95.6227 15.15274296  5644
KUIPER-00116            
1 65153U 25171X   25286.66667824 -.01552321  00000+0 -13586+0 0  9996
2 65153  51.8940 104.4044 0007211 323.4399 136.2336 14.99454614  5208
KUIPER-00118            
1 65154U 25171Y   25286.66667824 -.00076909  00000+0 -78562-2 0  9997
2 65154  51.8942 106.0463 0003764 359.3779 113.8255 14.90513469  5243
KUIPER-00119            
1 65155U 25171Z   25286.66667824  .00000924  00000+0  50570-4 0  9991
2 65155  51.8810 100.3164 0006044 325.7745  43.6378 15.24620000  5791
KUIPER-00120            
1 65762U 25217A   25286.61344570  .00031699  00000+0  94079-3 0  9995
2 65762  51.8634 355.2654 0009660 178.7308 181.3704 15.34484319  2794
KUIPER-00132            
1 65763U 25217B   25286.60324954  .00031471  00000+0  90853-3 0  9993
2 65763  51.8662 355.2027 0006430 163.7277 196.3916 15.35382805  2790
KUIPER-00133            
1 65764U 25217C   25286.61091454  .00037458  00000+0  11032-2 0  9993
2 65764  51.8660 355.2516 0008363 174.4549 185.6531 15.34654985  2794
KUIPER-00139            
1 65765U 25217D   25286.60555495  .00025034  00000+0  73050-3 0  9999
2 65765  51.8684 355.2184 0007108 168.4970 191.6180 15.35165387  2790
KUIPER-00142            
1 65766U 25217E   25286.59173073  .00040492  00000+0  11310-2 0  9991
2 65766  51.8721 355.1308 0003456 127.3833 232.7468 15.36307266  2795
KUIPER-00145            
1 65767U 25217F   25286.59378660  .00025581  00000+0  72322-3 0  9994
2 65767  51.8736 355.1430 0004060 139.8648 220.2639 15.36159752  2799
KUIPER-00147            
1 65768U 25217G   25286.60450078  .00038841  00000+0  11217-2 0  9999
2 65768  51.8674 355.2111 0006982 161.5383 198.5858 15.35266444  2797
KUIPER-00148            
1 65769U 25217H   25286.61272978  .00031262  00000+0  92695-3 0  9992
2 65769  51.8620 355.2593 0009917 175.3630 184.7449 15.34518035  2790
KUIPER-00150            
1 65770U 25217J   25286.61120995  .00032002  00000+0  94411-3 0  9996
2 65770  51.8608 355.2481 0008999 176.2887 183.8167 15.34674267  2794
KUIPER-00151            
1 65771U 25217K   25286.59643711  .00030330  00000+0  86039-3 0  9999
2 65771  51.8715 355.1611 0005424 144.9509 215.1835 15.35955853  2796
KUIPER-00152            
1 65772U 25217L   25286.58303001  .00026578  00000+0  72881-3 0  9993
2 65772  51.8750 355.0667 0002198  70.0779 290.0444 15.37094592  2793
KUIPER-00153            
1 65773U 25217M   25286.60888576  .00030448  00000+0  89383-3 0  9998
2 65773  51.8645 355.2365 0008162 168.9649 191.1517 15.34862392  2794
KUIPER-00155            
1 65774U 25217N   25286.60012450  .00036677  00000+0  10482-2 0  9992
2 65774  51.8686 355.1843 0005613 156.2548 203.8698 15.35628102  2797
KUIPER-00156            
1 65775U 25217P   25286.58663295  .00021475  00000+0  59730-3 0  9999
2 65775  51.8750 355.0933 0002580 102.9306 257.1969 15.36779149  2791
KUIPER-00158            
1 65776U 25217Q   25286.59756923  .00030796  00000+0  87630-3 0  9998
2 65776  51.8723 355.1684 0005268 151.5894 208.5380 15.35853374  2793
KUIPER-00163            
1 65777U 25217R   25286.60722892  .00038460  00000+0  11191-2 0  9993
2 65777  51.8637 355.2252 0008122 169.8212 190.2940 15.35024564  2798
